$$SOE
2461288.500000000, A.D. 2026-Sep-05 00:00:00.0000, -1.136863012350742E+07, -4.033363018779510E+08, -4.292798411724418E+07,
2461295.500000000, A.D. 2026-Sep-12 00:00:00.0000, -7.719517648918988E+05, -4.030792177984644E+08, -4.282685724233007E+07,
2461302.500000000, A.D. 2026-Sep-19 00:00:00.0000, 9.825302184951516E+06, -4.025283701123420E+08, -4.269451506308213E+07,
2461309.500000000, A.D. 2026-Sep-26 00:00:00.0000, 2.041538274738211E+07, -4.016831979938306E+08, -4.253095168511245E+07,
2461316.500000000, A.D. 2026-Oct-03 00:00:00.0000, 3.099049366019980E+07, -4.005433157593137E+08, -4.233618015574419E+07,
2461323.500000000, A.D. 2026-Oct-10 00:00:00.0000, 4.154279370055346E+07, -3.991085155473058E+08, -4.211023273900378E+07,
2461330.500000000, A.D. 2026-Oct-17 00:00:00.0000, 5.206439910043779E+07, -3.973787701492956E+08, -4.185316120150277E+07,
2461337.500000000, A.D. 2026-Oct-24 00:00:00.0000, 6.254738608911156E+07, -3.953542360092292E+08, -4.156503711263928E+07,
2461344.500000000, A.D. 2026-Oct-31 00:00:00.0000, 7.298379367159046E+07, -3.930352564544327E+08, -4.124595217312336E+07,
2461351.500000000, A.D. 2026-Nov-07 00:00:00.0000, 8.336562699211666E+07, -3.904223650806296E+08, -4.089601859632799E+07,
2461358.500000000, A.D. 2026-Nov-14 00:00:00.0000, 9.368486149257456E+07, -3.875162883998534E+08, -4.051536948761842E+07,
2461365.500000000, A.D. 2026-Nov-21 00:00:00.0000, 1.039334460626517E+08, -3.843179470638404E+08, -4.010415899874300E+07,
2461372.500000000, A.D. 2026-Nov-28 00:00:00.0000, 1.141033041925684E+08, -3.808284586628225E+08, -3.966256241033465E+07,
2461379.500000000, A.D. 2026-Dec-05 00:00:00.0000, 1.241863367582822E+08, -3.770491427476251E+08, -3.919077652701914E+07,
2461386.500000000, A.D. 2026-Dec-12 00:00:00.0000, 1.341744266147552E+08, -3.729815249574054E+08, -3.868902014505638E+07,
2461393.500000000, A.D. 2026-Dec-19 00:00:00.0000, 1.440594431197889E+08, -3.686273402394801E+08, -3.815753441780223E+07,
2461400.500000000, A.D. 2026-Dec-26 00:00:00.0000, 1.538332464553845E+08, -3.639885360206938E+08, -3.759658317562725E+07,
2461407.500000000, A.D. 2027-Jan-02 00:00:00.0000, 1.634876920314890E+08, -3.590672755117410E+08, -3.700645323989631E+07,
2461414.500000000, A.D. 2027-Jan-09 00:00:00.0000, 1.730146350973432E+08, -3.538659411139112E+08, -3.638745473872639E+07,
2461421.500000000, A.D. 2027-Jan-16 00:00:00.0000, 1.824059356030950E+08, -3.483871379076741E+08, -3.573992142559773E+07,
2461428.500000000, A.D. 2027-Jan-23 00:00:00.0000, 1.916534633647650E+08, -3.426336972493016E+08, -3.506421100681643E+07,
2461435.500000000, A.D. 2027-Jan-30 00:00:00.0000, 2.007491037281331E+08, -3.366086805093446E+08, -3.436070549758953E+07,
2461442.500000000, A.D. 2027-Feb-06 00:00:00.0000, 2.096847641643627E+08, -3.303153825999157E+08, -3.362981161659007E+07,
2461449.500000000, A.D. 2027-Feb-13 00:00:00.0000, 2.184523813438194E+08, -3.237573340584098E+08, -3.287196107571223E+07,
2461456.500000000, A.D. 2027-Feb-20 00:00:00.0000, 2.270439263289146E+08, -3.169383024636196E+08, -3.208761061119458E+07,
2461463.500000000, A.D. 2027-Feb-27 00:00:00.0000, 2.354514092860520E+08, -3.098622963788525E+08, -3.127724214493825E+07,
2461470.500000000, A.D. 2027-Mar-06 00:00:00.0000, 2.436668867407494E+08, -3.025335698796020E+08, -3.044136319397375E+07,
2461477.500000000, A.D. 2027-Mar-13 00:00:00.0000, 2.516824697822585E+08, -2.949566255978130E+08, -2.958050721211885E+07,
2461484.500000000, A.D. 2027-Mar-20 00:00:00.0000, 2.594903320935976E+08, -2.871362170983806E+08, -2.869523382659139E+07,
2461491.500000000, A.D. 2027-Mar-27 00:00:00.0000, 2.670827180133004E+08, -2.790773511165718E+08, -2.778612903092998E+07,
2461498.500000000, A.D. 2027-Apr-03 00:00:00.0000, 2.744519508350816E+08, -2.707852896832411E+08, -2.685380535453866E+07,
2461505.500000000, A.D. 2027-Apr-10 00:00:00.0000, 2.815904414081339E+08, -2.622655520936136E+08, -2.589890201017465E+07,
2461512.500000000, A.D. 2027-Apr-17 00:00:00.0000, 2.884906970582744E+08, -2.535239167118118E+08, -2.492208501985757E+07,
2461519.500000000, A.D. 2027-Apr-24 00:00:00.0000, 2.951453309031787E+08, -2.445664226480866E+08, -2.392404732851751E+07,
2461526.500000000, A.D. 2027-May-01 00:00:00.0000, 3.015470718536355E+08, -2.353993712511386E+08, -2.290550892743981E+07,
2461533.500000000, A.D. 2027-May-08 00:00:00.0000, 3.076887756030638E+08, -2.260293266355133E+08, -2.186721695159203E+07,
2461540.500000000, A.D. 2027-May-15 00:00:00.0000, 3.135634351058248E+08, -2.164631142617826E+08, -2.080994553306390E+07,
2461547.500000000, A.D. 2027-May-22 00:00:00.0000, 3.191641889756683E+08, -2.067078201344809E+08, -1.973449547662450E+07,
2461554.500000000, A.D. 2027-May-29 00:00:00.0000, 3.244843311516253E+08, -1.967707920586019E+08, -1.864169418264006E+07,
2461561.500000000, A.D. 2027-Jun-05 00:00:00.0000, 3.295173227058052E+08, -1.866596397960483E+08, -1.753239563969207E+07,
2461568.500000000, A.D. 2027-Jun-12 00:00:00.0000, 3.342568037720785E+08, -1.763822336642605E+08, -1.640748026432727E+07,
2461575.500000000, A.D. 2027-Jun-19 00:00:00.0000, 3.386966052469564E+08, -1.659467024846966E+08, -1.526785463068686E+07,
2461582.500000000, A.D. 2027-Jun-26 00:00:00.0000, 3.428307605214470E+08, -1.553614311135860E+08, -1.411445113369509E+07,
2461589.500000000, A.D. 2027-Jul-03 00:00:00.0000, 3.466535173533028E+08, -1.446350575172766E+08, -1.294822759401345E+07,
2461596.500000000, A.D. 2027-Jul-10 00:00:00.0000, 3.501593498918325E+08, -1.337764693545962E+08, -1.177016680428687E+07,
2461603.500000000, A.D. 2027-Jul-17 00:00:00.0000, 3.533429708644245E+08, -1.227948000774825E+08, -1.058127602017905E+07,
2461610.500000000, A.D. 2027-Jul-24 00:00:00.0000, 3.561993440499871E+08, -1.116994245861801E+08, -9.382586412895381E+06,
2461617.500000000, A.D. 2027-Jul-31 00:00:00.0000, 3.587236974154004E+08, -1.004999541762495E+08, -8.175152499121018E+06,
2461624.500000000, A.D. 2027-Aug-07 00:00:00.0000, 3.609115366795353E+08, -8.920622959825094E+07, -6.960051433251455E+06,
2461631.500000000, A.D. 2027-Aug-14 00:00:00.0000, 3.627586569709466E+08, -7.782831246163499E+07, -5.738381969047435E+06,
2461638.500000000, A.D. 2027-Aug-21 00:00:00.0000, 3.642611531577044E+08, -6.637647833013351E+07, -4.511263420449536E+06,
2461645.500000000, A.D. 2027-Aug-28 00:00:00.0000, 3.654154322330736E+08, -5.486121028728873E+07, -3.279834836439360E+06,
2461652.500000000, A.D. 2027-Sep-04 00:00:00.0000, 3.662182265282813E+08, -4.329319045290785E+07, -2.045254075771084E+06,
2461659.500000000, A.D. 2027-Sep-11 00:00:00.0000, 3.666666063083943E+08, -3.168329009938666E+07, -8.086967065781523E+05,
2461666.500000000, A.D. 2027-Sep-18 00:00:00.0000, 3.667579918320003E+08, -2.004255900929219E+07, 4.286452044184702E+05,
2461673.500000000, A.D. 2027-Sep-25 00:00:00.0000, 3.664901650473868E+08, -8.382214145545271E+06, 1.665564385887161E+06,
2461680.500000000, A.D. 2027-Oct-02 00:00:00.0000, 3.658612809417678E+08, 3.286372397444715E+06, 2.900839733990375E+06,
2461687.500000000, A.D. 2027-Oct-09 00:00:00.0000, 3.648698785069815E+08, 1.495168615871382E+07, 4.133237759227383E+06,
2461694.500000000, A.D. 2027-Oct-16 00:00:00.0000, 3.635148913267421E+08, 2.660208373441815E+07, 5.361514096300695E+06,
2461701.500000000, A.D. 2027-Oct-23 00:00:00.0000, 3.617956579874766E+08, 3.822580684588585E+07, 6.584415050711857E+06,
2461708.500000000, A.D. 2027-Oct-30 00:00:00.0000, 3.597119326261841E+08, 4.981099764767464E+07, 7.800679194928471E+06,
2461715.500000000, A.D. 2027-Nov-06 00:00:00.0000, 3.572638943900580E+08, 6.134571638733487E+07, 9.009039210481398E+06,
2461722.500000000, A.D. 2027-Nov-13 00:00:00.0000, 3.544521537687448E+08, 7.281795931830759E+07, 1.020822398631191E+07,
2461729.500000000, A.D. 2027-Nov-20 00:00:00.0000, 3.512777586451667E+08, 8.421567464593083E+07, 1.139696052515853E+07,
2461736.500000000, A.D. 2027-Nov-27 00:00:00.0000, 3.477422016186123E+08, 9.552677943333100E+07, 1.257397574735221E+07,
2461743.500000000, A.D. 2027-Dec-04 00:00:00.0000, 3.438474265155520E+08, 1.067391783418297E+08, 1.373799844770643E+07,
2461750.500000000, A.D. 2027-Dec-11 00:00:00.0000, 3.395958334814229E+08, 1.178407831974090E+08, 1.488776137229323E+07,
2461757.500000000, A.D. 2027-Dec-18 00:00:00.0000, 3.349902828752235E+08, 1.288195329940956E+08, 1.602200335672536E+07,
2461764.500000000, A.D. 2027-Dec-25 00:00:00.0000, 3.300340980691562E+08, 1.396634142768023E+08, 1.713947150591753E+07,
2461771.500000000, A.D. 2028-Jan-01 00:00:00.0000, 3.247310671490659E+08, 1.503604818573372E+08, 1.823892340637325E+07,
$$EOE